NORAD_CAT_ID,OBJECT_NAME,OBJECT_TYPE,EPOCH,MEAN_MOTION,ECCENTRICITY,INCLINATION,RA_OF_ASC_NODE,ARG_OF_PERICENTER,MEAN_ANOMALY,BSTAR,MEAN_MOTION_DOT,MEAN_MOTION_DDOT,TLE_LINE0,TLE_LINE1,TLE_LINE2,SEMIMAJOR_AXIS,PERIOD,APOGEE,PERIGEE,DECAYED
51896.0,STARLINK-3593,PAYLOAD,2022-12-22 22:53:14,15.08612954,0.000401,53.2182,223.7437,43.4666,316.6641,0.0032303,0.00051182,0.0,0 STARLINK-3593,1 51896U 22022AW  22356.95364168  .00051182  00000-0  32303-2 0  9997,2 51896  53.2182 223.7437 0004010  43.4666 316.6641 15.08612954 46259,6918.574000000001,95.452,543.214,537.665,0.0
51896.0,STARLINK-3593,PAYLOAD,2022-12-23 03:39:17,15.08845379,0.0002913,53.218,222.8527,36.116,324.0028,-2.583e-05,-7.000000000000003e-06,0.0,0 STARLINK-3593,1 51896U 22022AW  22357.15229113 -.00000700  00000-0 -25830-4 0  9991,2 51896  53.2180 222.8527 0002913  36.1160 324.0028 15.08845379 46289,6917.864000000001,95.437,541.744,537.714,0.0
51896.0,STARLINK-3593,PAYLOAD,2022-12-23 08:25:27,15.08831806,0.0002863,53.218,221.9612,35.0609,325.0571,0.0002586,3.829e-05,0.0,0 STARLINK-3593,1 51896U 22022AW  22357.35101727  .00003829  00000-0  25860-3 0  9998,2 51896  53.2180 221.9612 0002863  35.0609 325.0571 15.08831806 46312,6917.905,95.438,541.751,537.79,0.0
51896.0,STARLINK-3593,PAYLOAD,2022-12-23 17:57:46,15.0883715,0.0002855,53.2178,220.1769,35.6098,324.5084,0.00029425,4.397e-05,0.0,0 STARLINK-3593,1 51896U 22022AW  22357.74845640  .00004397  00000-0  29425-3 0  9992,2 51896  53.2178 220.1769 0002855  35.6098 324.5084 15.08837150 46379,6917.889,95.438,541.729,537.779,0.0
51896.0,STARLINK-3593,PAYLOAD,2022-12-24 01:54:42,15.08851558,0.0002904,53.2168,218.6905,36.1032,324.0156,0.00042586,6.498e-05,0.0,0 STARLINK-3593,1 51896U 22022AW  22358.07965477  .00006498  00000-0  42586-3 0  9997,2 51896  53.2168 218.6905 0002904  36.1032 324.0156 15.08851558 46420,6917.845,95.437,541.719,537.701,0.0
51896.0,STARLINK-3593,PAYLOAD,2022-12-24 20:59:18,15.08861951,0.0002763,53.2169,215.1229,25.9189,334.1941,0.0002504,3.701e-05,0.0,0 STARLINK-3593,1 51896U 22022AW  22358.87451676  .00003701  00000-0  25040-3 0  9996,2 51896  53.2169 215.1229 0002763  25.9189 334.1941 15.08861951 46549,6917.813,95.436,541.59,537.7669999999998,0.0
51896.0,STARLINK-3593,PAYLOAD,2022-12-25 08:07:00,15.0884743,0.0002714,53.2161,213.0405,31.1757,328.9395,-0.00013893,-2.5e-05,0.0,0 STARLINK-3593,1 51896U 22022AW  22359.33819710 -.00002500  00000-0 -13893-3 0  9996,2 51896  53.2161 213.0405 0002714  31.1757 328.9395 15.08847430 46618,6917.858,95.437,541.6,537.845,0.0
51896.0,STARLINK-3593,PAYLOAD,2022-12-25 17:39:19,15.08836844,0.0002665,53.216,211.2568,30.7393,329.3755,-0.00030813,-5.189e-05,0.0,0 STARLINK-3593,1 51896U 22022AW  22359.73564014 -.00005189  00000-0 -30813-3 0  9991,2 51896  53.2160 211.2568 0002665  30.7393 329.3755 15.08836844 46671,6917.89,95.438,541.599,537.911,0.0
51896.0,STARLINK-3593,PAYLOAD,2022-12-25 20:50:05,15.08838526,0.0002701,53.2165,210.662,34.0999,326.0166,-0.00017108,-3.01e-05,0.0,0 STARLINK-3593,1 51896U 22022AW  22359.86812235 -.00003010  00000-0 -17108-3 0  9999,2 51896  53.2165 210.6620 0002701  34.0999 326.0166 15.08838526 46699,6917.885,95.438,541.618,537.881,0.0
51896.0,STARLINK-3593,PAYLOAD,2022-12-26 01:36:15,15.08839722,0.0002651,53.2177,209.7697,34.152,325.9643,-9.9799e-05,-1.877e-05,0.0,0 STARLINK-3593,1 51896U 22022AW  22360.06684832 -.00001877  00000-0 -99799-4 0  9999,2 51896  53.2177 209.7697 0002651  34.1520 325.9643 15.08839722 46721,6917.880999999999,95.438,541.58,537.9119999999998,0.0
51896.0,STARLINK-3593,PAYLOAD,2022-12-26 20:40:52,15.08837511,0.0002563,53.2177,206.2014,31.416,328.6984,7.725100000000001e-05,9.41e-06,0.0,0 STARLINK-3593,1 51896U 22022AW  22360.86172222  .00000941  00000-0  77251-4 0  9990,2 51896  53.2177 206.2014 0002563  31.4160 328.6984 15.08837511 46843,6917.888000000001,95.438,541.526,537.98,0.0
51896.0,STARLINK-3593,PAYLOAD,2022-12-26 23:51:39,15.08838499,0.0002576,53.2176,205.6067,31.6881,328.4266,8.1274e-05,1.005e-05,0.0,0 STARLINK-3593,1 51896U 22022AW  22360.99420170  .00001005  00000-0  81274-4 0  9994,2 51896  53.2176 205.6067 0002576  31.6881 328.4266 15.08838499 46868,6917.885,95.438,541.5319999999998,537.9680000000002,0.0
51896.0,STARLINK-3593,PAYLOAD,2022-12-27 14:10:07,15.08837959,0.0002581,53.2174,202.9304,31.5983,328.5164,0.00019149,2.7600000000000014e-05,0.0,0 STARLINK-3593,1 51896U 22022AW  22361.59036107  .00002760  00000-0  19149-3 0  9994,2 51896  53.2174 202.9304 0002581  31.5983 328.5164 15.08837959 46956,6917.887,95.438,541.5369999999998,537.966,0.0
51896.0,STARLINK-3593,PAYLOAD,2022-12-27 23:42:26,15.08840753,0.0002616,53.2173,201.1462,32.2314,327.8837,0.00018548,2.665e-05,0.0,0 STARLINK-3593,1 51896U 22022AW  22361.98780128  .00002665  00000-0  18548-3 0  9992,2 51896  53.2173 201.1462 0002616  32.2314 327.8837 15.08840753 47019,6917.878000000002,95.438,541.553,537.933,0.0
51896.0,STARLINK-3593,PAYLOAD,2022-12-29 05:54:46,15.08836019,0.0002708999999999,53.2163,195.4963,33.1771,326.9391,-2.0004e-05,-6.07e-06,0.0,0 STARLINK-3593,1 51896U 22022AW  22363.24636767 -.00000607  00000-0 -20004-4 0  9999,2 51896  53.2163 195.4963 0002709  33.1771 326.9391 15.08836019 47205,6917.893,95.438,541.632,537.884,0.0
51896.0,STARLINK-3593,PAYLOAD,2022-12-29 12:16:19,15.08830875,0.0002706,53.2165,194.3078,33.8736,326.2428,-3.1174000000000003e-05,-7.85e-06,0.0,0 STARLINK-3593,1 51896U 22022AW  22363.51133763 -.00000785  00000-0 -31174-4 0  9994,2 51896  53.2165 194.3078 0002706  33.8736 326.2428 15.08830875 47249,6917.908,95.438,541.645,537.901,0.0
51896.0,STARLINK-3593,PAYLOAD,2022-12-30 13:42:30,15.08817428,0.0002021999999999,53.2179,189.5494,69.8467,290.2742,0.00016312,2.307e-05,0.0,0 STARLINK-3593,1 51896U 22022AW  22364.57118732  .00002307  00000-0  16312-3 0  9996,2 51896  53.2179 189.5494 0002022  69.8467 290.2742 15.08817428 47409,6917.949000000001,95.439,541.2130000000002,538.4159999999998,0.0
51896.0,STARLINK-3593,PAYLOAD,2022-12-30 20:04:03,15.08834028,0.0002396,53.2178,188.3598,42.9489,317.1689,2.9625e-05,1.83e-06,0.0,0 STARLINK-3593,1 51896U 22022AW  22364.83614642  .00000183  00000-0  29625-4 0  9998,2 51896  53.2178 188.3598 0002396  42.9489 317.1689 15.08834028 47448,6917.899,95.438,541.4209999999998,538.106,0.0
51896.0,STARLINK-3593,PAYLOAD,2022-12-31 11:57:54,15.08828753,0.0002699,53.2176,185.386,35.9381,324.1793,0.00018709,2.69e-05,0.0,0 STARLINK-3593,1 51896U 22022AW  22365.49855158  .00002690  00000-0  18709-3 0  9995,2 51896  53.2176 185.3860 0002699  35.9381 324.1793 15.08828753 47547,6917.915,95.438,541.6469999999998,537.913,0.0
51896.0,STARLINK-3593,PAYLOAD,2022-12-31 18:19:27,15.08832079,0.0002734,53.2167,184.1967,36.22,323.8977,0.00024531,3.617e-05,0.0,0 STARLINK-3593,1 51896U 22022AW  22365.76351429  .00003617  00000-0  24531-3 0  9997,2 51896  53.2167 184.1967 0002734  36.2200 323.8977 15.08832079 47586,6917.905,95.438,541.661,537.878,0.0
51896.0,STARLINK-3593,PAYLOAD,2023-01-01 05:27:09,15.08839179,0.0002784,53.2168,182.1152,37.1596,322.9588,0.00027967,4.165e-05,0.0,0 STARLINK-3593,1 51896U 22022AW  23001.22719373  .00004165  00000-0  27967-3 0  9997,2 51896  53.2168 182.1152 0002784  37.1596 322.9588 15.08839179 47658,6917.8830000000025,95.438,541.674,537.822,0.0
51896.0,STARLINK-3593,PAYLOAD,2023-01-01 11:48:42,15.08842363,0.0002796999999999,53.2168,180.9256,37.8177,322.3011,0.00029076,4.342e-05,0.0,0 STARLINK-3593,1 51896U 22022AW  23001.49215313  .00004342  00000-0  29076-3 0  9991,2 51896  53.2168 180.9256 0002797  37.8177 322.3011 15.08842363 47693,6917.873000000001,95.437,541.673,537.803,0.0
51896.0,STARLINK-3593,PAYLOAD,2023-01-01 18:10:14,15.08847797,0.0002813,53.2161,179.7361,38.2719,321.8472,0.00035917,5.434e-05,0.0,0 STARLINK-3593,1 51896U 22022AW  23001.75711163  .00005434  00000-0  35917-3 0  9998,2 51896  53.2161 179.7361 0002813  38.2719 321.8472 15.08847797 47731,6917.857,95.437,541.668,537.776,0.0
51896.0,STARLINK-3593,PAYLOAD,2023-01-02 13:14:51,15.08860085,0.0002904999999999,53.216,176.1677,39.889,320.2315,0.00039494,6.006e-05,0.0,0 STARLINK-3593,1 51896U 22022AW  23002.55198261  .00006006  00000-0  39494-3 0  9995,2 51896  53.2160 176.1677 0002905  39.8890 320.2315 15.08860085 47857,6917.819,95.436,541.694,537.674,0.0
51896.0,STARLINK-3593,PAYLOAD,2023-01-02 14:50:14,15.08861083,0.0002911,53.216,175.8704,39.966,320.1546,0.00039774,6.051e-05,0.0,0 STARLINK-3593,1 51896U 22022AW  23002.61822161  .00006051  00000-0  39774-3 0  9996,2 51896  53.2160 175.8704 0002911  39.9660 320.1546 15.08861083 47862,6917.816,95.436,541.695,537.6669999999998,0.0
51896.0,STARLINK-3593,PAYLOAD,2023-01-03 13:05:37,15.08855645,0.0002878,53.2162,171.7072,40.2655,319.855,0.0001859,2.673e-05,0.0,0 STARLINK-3593,1 51896U 22022AW  23003.54557709  .00002673  00000-0  18590-3 0  9991,2 51896  53.2162 171.7072 0002878  40.2655 319.8550 15.08855645 48002,6917.833000000001,95.437,541.689,537.707,0.0
51896.0,STARLINK-3593,PAYLOAD,2023-01-04 11:21:01,15.08845672,0.0002939,53.2163,167.5441,40.8698,319.2514,4.6758e-06,-2.14e-06,0.0,0 STARLINK-3593,1 51896U 22022AW  23004.47293488 -.00000214  00000-0  46758-5 0  9994,2 51896  53.2163 167.5441 0002939  40.8698 319.2514 15.08845672 48145,6917.863,95.437,541.761,537.695,0.0
51896.0,STARLINK-3593,PAYLOAD,2023-01-04 16:07:10,15.08850203,0.0002927,53.2165,166.6519,41.1394,318.9818,7.2703e-05,8.69e-06,0.0,0 STARLINK-3593,1 51896U 22022AW  23004.67165224  .00000869  00000-0  72703-4 0  9995,2 51896  53.2165 166.6519 0002927  41.1394 318.9818 15.08850203 48179,6917.849,95.437,541.739,537.689,0.0
51896.0,STARLINK-3593,PAYLOAD,2023-01-05 06:25:38,15.08856241,0.0002791999999999,53.2163,163.976,46.6131,313.5093,0.00017595,2.514e-05,0.0,0 STARLINK-3593,1 51896U 22022AW  23005.26780504  .00002514  00000-0  17595-3 0  9991,2 51896  53.2163 163.9760 0002792  46.6131 313.5093 15.08856241 48268,6917.831,95.437,541.627,537.764,0.0
